[
    {
        "Altitude(m)": 711093.1763562572,
        "Argument of Periapsis(deg)": 0.009112096949301655,
        "Eccentricity": 0.0,
        "Inclination(deg)": 45.0,
        "Latitude(deg)": -28.390735377787383,
        "Longitude(deg)": 71.90677363224778,
        "Mean Anomaly(deg)": -138.04612668201537,
        "RAAN(deg)": 319.9913984468334,
        "Satellite Name": "Constellation 1 1421",
        "Satellite Number": 1421,
        "Semi-Major Axis(m)": 7083131.272910544,
        "Time(s)": 152
    },
    {
        "Altitude(m)": 711106.9833459841,
        "Argument of Periapsis(deg)": 0.009172044955547059,
        "Eccentricity": 0.0,
        "Inclination(deg)": 45.0,
        "Latitude(deg)": -28.427024459802798,
        "Longitude(deg)": 71.95788629800089,
        "Mean Anomaly(deg)": -137.9854255417654,
        "RAAN(deg)": 319.99134185766786,
        "Satellite Name": "Constellation 1 1421",
        "Satellite Number": 1421,
        "Semi-Major Axis(m)": 7083131.272910544,
        "Time(s)": 153
    },
    {
        "Altitude(m)": 711120.7883666849,
        "Argument of Periapsis(deg)": 0.009231992961792466,
        "Eccentricity": 0.0,
        "Inclination(deg)": 45.0,
        "Latitude(deg)": -28.46329086104206,
        "Longitude(deg)": 72.0090364848518,
        "Mean Anomaly(deg)": -137.92472440151556,
        "RAAN(deg)": 319.9912852685023,
        "Satellite Name": "Constellation 1 1421",
        "Satellite Number": 1421,
        "Semi-Major Axis(m)": 7083131.272910544,
        "Time(s)": 154
    },
    {
        "Altitude(m)": 711134.5913703382,
        "Argument of Periapsis(deg)": 0.009291940968037872,
        "Eccentricity": 0.0,
        "Inclination(deg)": 45.0,
        "Latitude(deg)": -28.499534532760627,
        "Longitude(deg)": 72.06022425187201,
        "Mean Anomaly(deg)": -137.8640232612656,
        "RAAN(deg)": 319.9912286793367,
        "Satellite Name": "Constellation 1 1421",
        "Satellite Number": 1421,
        "Semi-Major Axis(m)": 7083131.272910544,
        "Time(s)": 155
    },
    {
        "Altitude(m)": 711148.3923089282,
        "Argument of Periapsis(deg)": 0.009351888974283276,
        "Eccentricity": 0.0,
        "Inclination(deg)": 45.0,
        "Latitude(deg)": -28.535755426144163,
        "Longitude(deg)": 72.11144949000334,
        "Mean Anomaly(deg)": -137.80332212101573,
        "RAAN(deg)": 319.9911720901712,
        "Satellite Name": "Constellation 1 1421",
        "Satellite Number": 1421,
        "Semi-Major Axis(m)": 7083131.272910544,
        "Time(s)": 156
    },
    {
        "Altitude(m)": 711162.1911344241,
        "Argument of Periapsis(deg)": 0.00941183698052868,
        "Eccentricity": 0.0,
        "Inclination(deg)": 45.0,
        "Latitude(deg)": -28.571953492308587,
        "Longitude(deg)": 72.16271259444574,
        "Mean Anomaly(deg)": -137.7426209807658,
        "RAAN(deg)": 319.9911155010056,
        "Satellite Name": "Constellation 1 1421",
        "Satellite Number": 1421,
        "Semi-Major Axis(m)": 7083131.272910544,
        "Time(s)": 157
    },
    {
        "Altitude(m)": 711175.9877987939,
        "Argument of Periapsis(deg)": 0.009471784986774088,
        "Eccentricity": 0.0,
        "Inclination(deg)": 45.0,
        "Latitude(deg)": -28.60812868230007,
        "Longitude(deg)": 72.21401345607445,
        "Mean Anomaly(deg)": -137.681919840516,
        "RAAN(deg)": 319.99105891184,
        "Satellite Name": "Constellation 1 1421",
        "Satellite Number": 1421,
        "Semi-Major Axis(m)": 7083131.272910544,
        "Time(s)": 158
    },
    {
        "Altitude(m)": 711189.7822540146,
        "Argument of Periapsis(deg)": 0.009531732993019492,
        "Eccentricity": 0.0,
        "Inclination(deg)": 45.0,
        "Latitude(deg)": -28.644280947095233,
        "Longitude(deg)": 72.26535213382847,
        "Mean Anomaly(deg)": -137.62121870026607,
        "RAAN(deg)": 319.99100232267443,
        "Satellite Name": "Constellation 1 1421",
        "Satellite Number": 1421,
        "Semi-Major Axis(m)": 7083131.272910544,
        "Time(s)": 159
    },
    {
        "Altitude(m)": 711203.5744520419,
        "Argument of Periapsis(deg)": 0.009591680999264898,
        "Eccentricity": 0.0,
        "Inclination(deg)": 45.0,
        "Latitude(deg)": -28.680410237600505,
        "Longitude(deg)": 72.3167286866113,
        "Mean Anomaly(deg)": -137.56051756001608,
        "RAAN(deg)": 319.99094573350885,
        "Satellite Name": "Constellation 1 1421",
        "Satellite Number": 1421,
        "Semi-Major Axis(m)": 7083131.272910544,
        "Time(s)": 160
    },
    {
        "Altitude(m)": 711217.3643448472,
        "Argument of Periapsis(deg)": 0.009651629005510304,
        "Eccentricity": 0.0,
        "Inclination(deg)": 45.0,
        "Latitude(deg)": -28.71651650465242,
        "Longitude(deg)": 72.36814317329163,
        "Mean Anomaly(deg)": -137.49981641976626,
        "RAAN(deg)": 319.9908891443433,
        "Satellite Name": "Constellation 1 1421",
        "Satellite Number": 1421,
        "Semi-Major Axis(m)": 7083131.272910544,
        "Time(s)": 161
    },
    {
        "Altitude(m)": 711231.1518843857,
        "Argument of Periapsis(deg)": 0.00971157701175571,
        "Eccentricity": 0.0,
        "Inclination(deg)": 45.0,
        "Latitude(deg)": -28.75259969901775,
        "Longitude(deg)": 72.41959565270287,
        "Mean Anomaly(deg)": -137.43911527951641,
        "RAAN(deg)": 319.99083255517775,
        "Satellite Name": "Constellation 1 1421",
        "Satellite Number": 1421,
        "Semi-Major Axis(m)": 7083131.272910544,
        "Time(s)": 162
    },
    {
        "Altitude(m)": 711244.9370226234,
        "Argument of Periapsis(deg)": 0.009771525018001118,
        "Eccentricity": 0.0,
        "Inclination(deg)": 45.0,
        "Latitude(deg)": -28.788659771393185,
        "Longitude(deg)": 72.47108601554494,
        "Mean Anomaly(deg)": -137.37841413926643,
        "RAAN(deg)": 319.99077596601217,
        "Satellite Name": "Constellation 1 1421",
        "Satellite Number": 1421,
        "Semi-Major Axis(m)": 7083131.272910544,
        "Time(s)": 163
    },
    {
        "Altitude(m)": 711258.7197115108,
        "Argument of Periapsis(deg)": 0.00983147302424652,
        "Eccentricity": 0.0,
        "Inclination(deg)": 45.0,
        "Latitude(deg)": -28.824696672404798,
        "Longitude(deg)": 72.52261465677165,
        "Mean Anomaly(deg)": -137.31771299901655,
        "RAAN(deg)": 319.9907193768466,
        "Satellite Name": "Constellation 1 1421",
        "Satellite Number": 1421,
        "Semi-Major Axis(m)": 7083131.272910544,
        "Time(s)": 164
    },
    {
        "Altitude(m)": 711272.4999030083,
        "Argument of Periapsis(deg)": 0.009891421030491928,
        "Eccentricity": 0.0,
        "Inclination(deg)": 45.0,
        "Latitude(deg)": -28.860710352609097,
        "Longitude(deg)": 72.5741814670091,
        "Mean Anomaly(deg)": -137.25701185876667,
        "RAAN(deg)": 319.990662787681,
        "Satellite Name": "Constellation 1 1421",
        "Satellite Number": 1421,
        "Semi-Major Axis(m)": 7083131.272910544,
        "Time(s)": 165
    },
    {
        "Altitude(m)": 711286.2775490695,
        "Argument of Periapsis(deg)": 0.009951369036737332,
        "Eccentricity": 0.0,
        "Inclination(deg)": 45.0,
        "Latitude(deg)": -28.896700762492205,
        "Longitude(deg)": 72.62578650494221,
        "Mean Anomaly(deg)": -137.19631071851674,
        "RAAN(deg)": 319.9906061985155,
        "Satellite Name": "Constellation 1 1421",
        "Satellite Number": 1421,
        "Semi-Major Axis(m)": 7083131.272910544,
        "Time(s)": 166
    },
    {
        "Altitude(m)": 711300.0526016473,
        "Argument of Periapsis(deg)": 0.010011317042982738,
        "Eccentricity": 0.0,
        "Inclination(deg)": 45.0,
        "Latitude(deg)": -28.93266785246992,
        "Longitude(deg)": 72.67742982921759,
        "Mean Anomaly(deg)": -137.13560957826678,
        "RAAN(deg)": 319.9905496093499,
        "Satellite Name": "Constellation 1 1421",
        "Satellite Number": 1421,
        "Semi-Major Axis(m)": 7083131.272910544,
        "Time(s)": 167
    },
    {
        "Altitude(m)": 711313.8250126926,
        "Argument of Periapsis(deg)": 0.010071265049228144,
        "Eccentricity": 0.0,
        "Inclination(deg)": 45.0,
        "Latitude(deg)": -28.96861157288758,
        "Longitude(deg)": 72.72911149844242,
        "Mean Anomaly(deg)": -137.07490843801702,
        "RAAN(deg)": 319.99049302018426,
        "Satellite Name": "Constellation 1 1421",
        "Satellite Number": 1421,
        "Semi-Major Axis(m)": 7083131.272910544,
        "Time(s)": 168
    },
    {
        "Altitude(m)": 711327.5947341658,
        "Argument of Periapsis(deg)": 0.01013121305547355,
        "Eccentricity": 0.0,
        "Inclination(deg)": 45.0,
        "Latitude(deg)": -29.004531874020472,
        "Longitude(deg)": 72.78083157118513,
        "Mean Anomaly(deg)": -137.01420729776703,
        "RAAN(deg)": 319.99043643101874,
        "Satellite Name": "Constellation 1 1421",
        "Satellite Number": 1421,
        "Semi-Major Axis(m)": 7083131.272910544,
        "Time(s)": 169
    },
    {
        "Altitude(m)": 711341.3617180099,
        "Argument of Periapsis(deg)": 0.010191161061718957,
        "Eccentricity": 0.0,
        "Inclination(deg)": 45.0,
        "Latitude(deg)": -29.040428706073246,
        "Longitude(deg)": 72.83259010597337,
        "Mean Anomaly(deg)": -136.9535061575171,
        "RAAN(deg)": 319.99037984185316,
        "Satellite Name": "Constellation 1 1421",
        "Satellite Number": 1421,
        "Semi-Major Axis(m)": 7083131.272910544,
        "Time(s)": 170
    }
]